ORBCOMM FM115           
1 41186U 15081H   24191.48326594  .00000778  00000+0  19261-3 0  9996
2 41186  46.9976 227.6132 0001747 287.5788  72.4908 14.60868012457631
ORBCOMM FM108           
1 41187U 15081J   24191.56303502  .00001249  00000+0  31419-3 0  9993
2 41187  47.0054 283.4428 0002567 203.7343 156.3424 14.56714142456898
ORBCOMM FM117           
1 41188U 15081K   24190.98012458  .00001382  00000+0  34356-3 0  9997
2 41188  47.0017 285.0620 0003351 206.8059 153.2654 14.56714723456829
ORBCOMM FM116           
1 41189U 15081L   24190.83194133  .00001272  00000+0  31904-3 0  9997
2 41189  47.0036  15.5801 0002547 262.9857  97.0739 14.56723516455562
